{
    "links": {
        "self": "http://www.neowsapp.com/rest/v1/neo/3447915?api_key=iIulBulltgU6a56xZRHN4H3l9WmuAYTsLGpBGhQ2"
    },
    "id": "3447915",
    "neo_reference_id": "3447915",
    "name": "(2009 DA1)",
    "designation": "2009 DA1",
    "nasa_jpl_url": "http://ssd.jpl.nasa.gov/sbdb.cgi?sstr=3447915",
    "absolute_magnitude_h": 22.3,
    "estimated_diameter": {
        "kilometers": {
            "estimated_diameter_min": 0.0921626549,
            "estimated_diameter_max": 0.2060819612
        },
        "meters": {
            "estimated_diameter_min": 92.1626548503,
            "estimated_diameter_max": 206.0819612321
        },
        "miles": {
            "estimated_diameter_min": 0.057267201,
            "estimated_diameter_max": 0.1280533543
        },
        "feet": {
            "estimated_diameter_min": 302.370924539,
            "estimated_diameter_max": 676.1219416887
        }
    },
    "is_potentially_hazardous_asteroid": false,
    "close_approach_data": [
        {
            "close_approach_date": "2009-01-28",
            "close_approach_date_full": "2009-Jan-28 18:52",
            "epoch_date_close_approach": 1233168720000,
            "relative_velocity": {
                "kilometers_per_second": "15.5426812873",
                "kilometers_per_hour": "55953.6526341432",
                "miles_per_hour": "34767.4237714764"
            },
            "miss_distance": {
                "astronomical": "0.0656413716",
                "lunar": "25.5344935524",
                "kilometers": "9819809.375238492",
                "miles": "6101746.6040235096"
            },
            "orbiting_body": "Earth"
        }
    ],
    "orbital_data": {
        "orbit_id": "13",
        "orbit_determination_date": "2017-04-06 09:01:19",
        "first_observation_date": "2009-02-19",
        "last_observation_date": "2009-03-03",
        "data_arc_in_days": 12,
        "observations_used": 57,
        "orbit_uncertainty": "9",
        "minimum_orbit_intersection": ".039946",
        "jupiter_tisserand_invariant": "3.027",
        "epoch_osculation": "2454887.5",
        "eccentricity": ".7029540918271847",
        "semi_major_axis": "2.55712549716455",
        "inclination": "5.871652325768713",
        "ascending_node_longitude": "156.4283358751008",
        "orbital_period": "1493.573126252658",
        "perihelion_distance": ".7595836656171056",
        "perihelion_argument": "272.6775788647336",
        "aphelion_distance": "4.354667328711995",
        "perihelion_time": "2454821.818140896805",
        "mean_anomaly": "15.83147745599585",
        "mean_motion": ".2410327245932926",
        "equinox": "J2000",
        "orbit_class": {
            "orbit_class_type": "APO",
            "orbit_class_description": "Near-Earth asteroid orbits which cross the Earth’s orbit similar to that of 1862 Apollo",
            "orbit_class_range": "a (semi-major axis) > 1.0 AU; q (perihelion) < 1.017 AU"
        }
    },
    "is_sentry_object": false
}